NORAD_CAT_ID,OBJECT_NAME,OBJECT_TYPE,EPOCH,MEAN_MOTION,ECCENTRICITY,INCLINATION,RA_OF_ASC_NODE,ARG_OF_PERICENTER,MEAN_ANOMALY,BSTAR,MEAN_MOTION_DOT,MEAN_MOTION_DDOT,TLE_LINE0,TLE_LINE1,TLE_LINE2,SEMIMAJOR_AXIS,PERIOD,APOGEE,PERIGEE,DECAYED
53855.0,STARLINK-4703,PAYLOAD,2023-12-12 08:23:10,15.08841951,0.0001577,53.2186,7.5355,104.8465,255.2702,6.1981e-05,6.99e-06,0.0,0 STARLINK-4703,1 53855U 22114AP  23346.34942836  .00000699  00000-0  61981-4 0  9996,2 53855  53.2186   7.5355 0001577 104.8465 255.2702 15.08841951 68892,6917.874,95.437,540.83,538.648,0.0
53855.0,STARLINK-4703,PAYLOAD,2023-12-13 08:13:57,15.08839278,0.0001557,53.2185,3.0751,104.3381,255.7784,1.4996e-05,-4.9e-07,0.0,0 STARLINK-4703,1 53855U 22114AP  23347.34303021 -.00000049  00000-0  14996-4 0  9998,2 53855  53.2185   3.0751 0001557 104.3381 255.7784 15.08839278 69583,6917.883,95.438,540.825,538.67,0.0
53855.0,STARLINK-4703,PAYLOAD,2023-12-14 06:29:21,15.08837986,0.0001607,53.2186,358.9128,104.2164,255.9007,7.7269e-05,9.42e-06,0.0,0 STARLINK-4703,1 53855U 22114AP  23348.27039190  .00000942  00000-0  77269-4 0  9997,2 53855  53.2186 358.9128 0001607 104.2164 255.9007 15.08837986 69728,6917.887,95.438,540.863,538.64,0.0
53855.0,STARLINK-4703,PAYLOAD,2023-12-15 04:44:45,15.08841422,0.0001573,53.2187,354.7491,103.597,256.5197,0.00011783,1.588e-05,0.0,0 STARLINK-4703,1 53855U 22114AP  23349.19774962  .00001588  00000-0  11783-3 0  9997,2 53855  53.2187 354.7491 0001573 103.5970 256.5197 15.08841422 69328,6917.876,95.437,540.829,538.653,0.0
53855.0,STARLINK-4703,PAYLOAD,2023-12-15 07:55:31,15.08846234,0.0001502,53.2181,354.1541,88.4957,271.6207,0.00015645,2.203e-05,0.0,0 STARLINK-4703,1 53855U 22114AP  23349.33022686  .00002203  00000-0  15645-3 0  9998,2 53855  53.2181 354.1541 0001502  88.4957 271.6207 15.08846234 69887,6917.861,95.437,540.765,538.687,0.0
53855.0,STARLINK-4703,PAYLOAD,2023-12-16 07:46:19,15.08834795,0.0001558,53.2179,349.6945,72.1436,287.9726,-1.5204e-05,-5.3e-06,0.0,0 STARLINK-4703,1 53855U 22114AP  23350.32383721 -.00000530  00000-0 -15204-4 0  9994,2 53855  53.2179 349.6945 0001558  72.1436 287.9726 15.08834795 69496,6917.896,95.438,540.839,538.683,0.0
53855.0,STARLINK-4703,PAYLOAD,2023-12-17 06:01:43,15.08842121,0.0001445,53.218,345.5259,79.2258,280.8897,5.3836e-05,5.69e-06,0.0,0 STARLINK-4703,1 53855U 22114AP  23351.25119576  .00000569  00000-0  53836-4 0  9995,2 53855  53.2180 345.5259 0001445  79.2258 280.8897 15.08842121 70176,6917.874,95.437,540.739,538.739,0.0
53855.0,STARLINK-4703,PAYLOAD,2023-12-18 05:52:29,15.08856249,0.0001795,53.2187,341.0634,64.9781,295.1397,0.00038868,5.906e-05,0.0,0 STARLINK-4703,1 53855U 22114AP  23352.24478893  .00005906  00000-0  38868-3 0  9992,2 53855  53.2187 341.0634 0001795  64.9781 295.1397 15.08856249 69786,6917.831,95.437,540.937,538.454,0.0
53855.0,STARLINK-4703,PAYLOAD,2023-12-19 04:07:54,15.08839481,0.0001646,53.2179,336.9095,114.1718,245.9447,-1.4118e-05,-5.13e-06,0.0,0 STARLINK-4703,1 53855U 22114AP  23353.17215473 -.00000513  00000-0 -14118-4 0  9992,2 53855  53.2179 336.9095 0001646 114.1718 245.9447 15.08839481 69928,6917.882,95.438,540.886,538.608,0.0
53855.0,STARLINK-4703,PAYLOAD,2023-12-19 05:43:17,15.08838131,0.0001708,53.2179,336.6139,119.9749,240.1413,-2.735e-05,-7.23e-06,0.0,0 STARLINK-4703,1 53855U 22114AP  23353.23839527 -.00000723  00000-0 -27350-4 0  9996,2 53855  53.2179 336.6139 0001708 119.9749 240.1413 15.08838131 70473,6917.886,95.438,540.933,538.57,0.0
53855.0,STARLINK-4703,PAYLOAD,2023-12-20 05:34:04,15.08843595,0.0001569,53.2182,332.1495,102.5108,257.606,0.00011484,1.54e-05,0.0,0 STARLINK-4703,1 53855U 22114AP  23354.23199702  .00001540  00000-0  11484-3 0  9997,2 53855  53.2182 332.1495 0001569 102.5108 257.6060 15.08843595 70083,6917.869,95.437,540.82,538.649,0.0
53855.0,STARLINK-4703,PAYLOAD,2023-12-21 03:49:28,15.08858516,0.0001576,53.2175,327.9855,101.6378,258.4791,0.00054933,8.47e-05,0.0,0 STARLINK-4703,1 53855U 22114AP  23355.15935241  .00008470  00000-0  54933-3 0  9990,2 53855  53.2175 327.9855 0001576 101.6378 258.4791 15.08858516 70229,6917.824,95.436,540.779,538.599,0.0
53855.0,STARLINK-4703,PAYLOAD,2023-12-22 03:40:15,15.0883862,0.0001575,53.2174,323.5259,110.8708,249.2453,-3.963e-05,-9.19e-06,0.0,0 STARLINK-4703,1 53855U 22114AP  23356.15295666 -.00000919  00000-0 -39630-4 0  9991,2 53855  53.2174 323.5259 0001575 110.8708 249.2453 15.08838620 70379,6917.885,95.438,540.839,538.66,0.0
53855.0,STARLINK-4703,PAYLOAD,2023-12-23 06:41:48,15.08850482,0.0001544,53.2172,318.4684,105.5336,254.5827,0.00047436,7.272e-05,0.0,0 STARLINK-4703,1 53855U 22114AP  23357.27903838  .00007272  00000-0  47436-3 0  9991,2 53855  53.2172 318.4684 0001544 105.5336 254.5827 15.08850482 70549,6917.848,95.437,540.781,538.645,0.0
53855.0,STARLINK-4703,PAYLOAD,2023-12-23 21:00:17,15.0884178,0.0001653,53.2163,315.7986,84.5768,275.5413,0.00034296,5.175e-05,0.0,0 STARLINK-4703,1 53855U 22114AP  23357.87520531  .00005175  00000-0  34296-3 0  9992,2 53855  53.2163 315.7986 0001653  84.5768 275.5413 15.08841780 71175,6917.875,95.437,540.883,538.596,0.0
53855.0,STARLINK-4703,PAYLOAD,2023-12-24 03:21:50,15.08846649,0.0001521,53.2163,314.6082,74.9194,285.1966,0.00056581,8.73e-05,0.0,0 STARLINK-4703,1 53855U 22114AP  23358.14016527  .00008730  00000-0  56581-3 0  9999,2 53855  53.2163 314.6082 0001521  74.9194 285.1966 15.08846649 70673,6917.86,95.437,540.777,538.673,0.0
53855.0,STARLINK-4703,PAYLOAD,2023-12-24 06:32:35,15.08873799,0.000135,53.2168,314.0068,122.2727,237.8396,0.001388,0.00021891,0.0,0 STARLINK-4703,1 53855U 22114AP  23358.27263324  .00021891  00000-0  13880-2 0  9999,2 53855  53.2168 314.0068 0001350 122.2727 237.8396 15.08873799 70694,6917.777,95.435,540.576,538.708,0.0
53855.0,STARLINK-4703,PAYLOAD,2023-12-25 03:12:35,15.08832445,0.0001846,53.2175,310.143,83.4891,276.6312,-0.00075552,-0.0001229,0.0,0 STARLINK-4703,1 53855U 22114AP  23359.13374852 -.00012290  00000-0 -75552-3 0  9994,2 53855  53.2175 310.1430 0001846  83.4891 276.6312 15.08832445 70829,6917.903,95.438,541.046,538.491,0.0
53855.0,STARLINK-4703,PAYLOAD,2023-12-26 06:14:10,15.08835403,0.00019,53.2167,305.0909,89.3464,270.7746,0.00097389,0.00015244,0.0,0 STARLINK-4703,1 53855U 22114AP  23360.25984529  .00015244  00000-0  97389-3 0  9999,2 53855  53.2167 305.0909 0001900  89.3464 270.7746 15.08835403 70997,6917.894,95.438,541.074,538.445,0.0
53855.0,STARLINK-4703,PAYLOAD,2023-12-27 02:54:11,15.08839641,0.0002075,53.2186,301.2187,88.796,271.327,0.00053986,8.314e-05,0.0,0 STARLINK-4703,1 53855U 22114AP  23361.12097105  .00008314  00000-0  53986-3 0  9996,2 53855  53.2186 301.2187 0002075  88.7960 271.3270 15.08839641 71125,6917.881,95.438,541.182,538.311,0.0
53855.0,STARLINK-4703,PAYLOAD,2023-12-27 20:23:26,15.08841733,0.0002163,53.2186,297.9524,95.6906,264.4333,0.0003611,5.464e-05,0.0,0 STARLINK-4703,1 53855U 22114AP  23361.84961295  .00005464  00000-0  36110-3 0  9998,2 53855  53.2186 297.9524 0002163  95.6906 264.4333 15.08841733 71236,6917.875,95.437,541.236,538.244,0.0
53855.0,STARLINK-4703,PAYLOAD,2023-12-28 01:09:35,15.08843024,0.0002042,53.2184,297.0569,95.0007,265.1219,0.00033873,5.107e-05,0.0,0 STARLINK-4703,1 53855U 22114AP  23362.04833195  .00005107  00000-0  33873-3 0  9995,2 53855  53.2184 297.0569 0002042  95.0007 265.1219 15.08843024 71805,6917.871,95.437,541.149,538.324,0.0
53855.0,STARLINK-4703,PAYLOAD,2023-12-28 20:14:13,15.08843809,0.0002073,53.2191,293.4976,110.1901,249.9314,0.0001453,2.025e-05,0.0,0 STARLINK-4703,1 53855U 22114AP  23362.84321139  .00002025  00000-0  14530-3 0  9998,2 53855  53.2191 293.4976 0002073 110.1901 249.9314 15.08843809 71381,6917.869,95.437,541.168,538.3,0.0
53855.0,STARLINK-4703,PAYLOAD,2023-12-29 02:35:45,15.08844759,0.0001839,53.218,292.3076,96.5699,263.5502,0.00011453,1.535e-05,0.0,0 STARLINK-4703,1 53855U 22114AP  23363.10817064  .00001535  00000-0  11453-3 0  9991,2 53855  53.2180 292.3076 0001839  96.5699 263.5502 15.08844759 71968,6917.866,95.437,541.003,538.459,0.0
53855.0,STARLINK-4703,PAYLOAD,2023-12-30 00:51:09,15.08843627,0.0001861,53.2176,288.1415,88.1869,271.9337,0.00010193,1.335e-05,0.0,0 STARLINK-4703,1 53855U 22114AP  23364.03553098  .00001335  00000-0  10193-3 0  9996,2 53855  53.2176 288.1415 0001861  88.1869 271.9337 15.08843627 71562,6917.869,95.437,541.022,538.447,0.0
53855.0,STARLINK-4703,PAYLOAD,2023-12-30 05:37:19,15.08846783,0.0001917,53.2173,287.2439,92.1945,267.9266,8.7919e-05,1.112e-05,0.0,0 STARLINK-4703,1 53855U 22114AP  23364.23424842  .00001112  00000-0  87919-4 0  9996,2 53855  53.2173 287.2439 0001917  92.1945 267.9266 15.08846783 72133,6917.86,95.437,541.051,538.399,0.0
53855.0,STARLINK-4703,PAYLOAD,2023-12-31 03:52:43,15.08841011,0.0001698,53.2171,283.0777,84.2176,275.901,5.137e-05,5.3e-06,0.0,0 STARLINK-4703,1 53855U 22114AP  23365.16161077  .00000530  00000-0  51370-4 0  9992,2 53855  53.2171 283.0777 0001698  84.2176 275.9010 15.08841011 71734,6917.877,95.437,540.917,538.568,0.0
53855.0,STARLINK-4703,PAYLOAD,2024-01-01 02:08:07,15.08843282,0.0001829,53.2189,278.9177,79.2502,280.8696,5.5658e-05,5.98e-06,0.0,0 STARLINK-4703,1 53855U 22114AP  24001.08897457  .00000598  00000-0  55658-4 0  9996,2 53855  53.2189 278.9177 0001829  79.2502 280.8696 15.08843282 72416,6917.87,95.437,541.001,538.47,0.0
53855.0,STARLINK-4703,PAYLOAD,2024-01-01 18:01:58,15.0884183,0.0001638,53.2174,275.9485,101.728,258.3896,0.00014226,1.977e-05,0.0,0 STARLINK-4703,1 53855U 22114AP  24001.75137201  .00001977  00000-0  14226-3 0  9991,2 53855  53.2174 275.9485 0001638 101.7280 258.3896 15.08841830 71970,6917.875,95.437,540.873,538.607,0.0
53855.0,STARLINK-4703,PAYLOAD,2024-01-01 22:48:07,15.08849975,0.0001502,53.2168,275.0582,108.071,252.0445,0.00012434,1.692e-05,0.0,0 STARLINK-4703,1 53855U 22114AP  24001.95008677  .00001692  00000-0  12434-3 0  9990,2 53855  53.2168 275.0582 0001502 108.0710 252.0445 15.08849975 72543,6917.85,95.437,540.754,538.676,0.0
